NUSAT-1 (FRESCO)        
1 41557U 16033B   22007.49848613  .00004451  00000+0  15107-3 0  9999
2 41557  97.3919 105.4645 0011104 224.7450 191.1817 15.30976981312731
BEESAT-4                
1 41619U 16040W   22007.36692040  .00003062  00000+0  11771-3 0  9993
2 41619  97.2427  62.5982 0009453 338.8288  21.2559 15.27116283296116
CAS-2T & KS-1Q          
1 41847U 16066G   22007.45154608  .00000138  00000+0  31625-4 0  9999
2 41847  98.5753  72.1435 0364196 331.3909  26.7713 14.38318568271207
NAYIF-1 (EO-88)         
1 42017U 17008BX  22007.16756048  .00003185  00000+0  11219-3 0  9991
2 42017  97.2925  76.0486 0007247 101.6940 258.5115 15.30005890272382
ZHUHAI-1 02 (CAS-4B)    
1 42759U 17034B   22007.50432029  .00001027  00000+0  74111-4 0  9995
2 42759  43.0151 138.9363 0008402 350.9927  93.9869 15.10694581252008
ZHUHAI-1 01 (CAS-4A)    
1 42761U 17034D   22007.48326090  .00001207  00000+0  84616-4 0  9996
2 42761  43.0164 137.9558 0008904 352.9160  90.7697 15.10783457252003
MAX VALIER SAT          
1 42778U 17036P   22007.10455362  .00001654  00000+0  69740-4 0  9997
2 42778  97.2295  53.8381 0011832 169.1833 190.9662 15.24613052252302
RADFXSAT (FOX-1B)       
1 43017U 17073E   22007.00039104  .00001559  00000+0  12391-3 0  9999
2 43017  97.6918 267.7655 0253004 356.2498   3.6811 14.80133133223223
FOX-1D (AO-92)          
1 43137U 18004AC  22006.83827078  .00002246  00000+0  88902-4 0  9998
2 43137  97.3878  83.7015 0007638 203.9296 156.1589 15.26462203221675
DIWATA-2B               
1 43678U 18084H   22007.42628185 -.00000052  00000+0  60248-6 0  9999
2 43678  97.9478 139.1015 0011380  95.9888 264.2625 14.91872004173840
ES'HAIL 2               
1 43700U 18090A   22007.33157476  .00000142  00000+0  00000+0 0  9994
2 43700   0.0135  71.2000 0001928 246.4326 294.3786  1.00272947 11656
FOX-1CLIFF (AO-95)      
1 43770U 18099N   22006.85812510  .00000793  00000+0  76288-4 0  9991
2 43770  97.6432  77.3304 0015865  97.4169 262.8856 14.95650751168857
ITASAT 1                
1 43786U 18099AE  22007.40878157  .00001039  00000+0  97748-4 0  9997
2 43786  97.6458  78.6865 0016686  89.0288 271.2845 14.95905001168975
JY1SAT (JO-97)          
1 43803U 18099AX  22006.73324837  .00001116  00000+0  10374-3 0  9998
2 43803  97.6417  77.7639 0016531  90.9706 269.3410 14.96218748168886
UWE-4                   
1 43880U 18111E   22006.71303744  .00000268  00000+0  28139-4 0  9996
2 43880  97.6790 275.8657 0012853 136.6625 223.5610 14.97249768165492
NEXUS (FO-99)           
1 43937U 19003F   22006.68475491  .00002747  00000+0  10506-3 0  9997
2 43937  97.1523  46.5877 0022723  15.6043 344.5892 15.27166573165265
PSAT2 (NO-104)          
1 44354U 19036R   22006.91371811  .00014649  00000+0  17129-3 0  9996
2 44354  28.5260 202.4395 0291865 335.3211  23.3666 15.22461927139906
BRICSAT2 (NO-103)       
1 44355U 19036S   22007.46684921  .00066102 -51185-5  48309-3 0  9999
2 44355  28.5230 109.0918 0186370 126.8375 234.9475 15.51696832140889
JAISAT-1                
1 44419U 19038F   22006.91331993  .00002360  00000+0  13029-3 0  9999
2 44419  97.6168 336.2976 0019788 335.2369  24.7911 15.14786507138584
DUCHIFAT-3              
1 44854U 19089C   22007.26447976  .00001399  00000+0  11680-3 0  9998
2 44854  36.9654 335.0049 0008130 341.5578  18.4852 14.99951515113719
CAS-6 (TO-108)          
1 44881U 19093C   22007.44050970  .00000186  00000+0  30396-4 0  9996
2 44881  97.9093  88.8790 0014965 355.8207   4.2875 14.81537420110934
RS-44 & BREEZE-KM R/B   
1 44909U 19096E   22007.13552707  .00000024  00000+0  54550-4 0  9990
2 44909  82.5224 337.4688 0217077 337.2114  21.9461 12.79711958 94922
ORBITAL FACTORY 2 (OF-2)
1 45113U 19071C   22006.61199513  .00006222  00000+0  17168-3 0  9994
2 45113  51.6411 130.8729 0010678 308.7387  51.2642 15.38404068108415
HUSKYSAT-1 (HO-107)     
1 45119U 19071J   22006.89106905  .00004839  00000+0  13670-3 0  9999
2 45119  51.6402 128.9730 0010175 306.5489  53.4558 15.38214444108453
BY70-2                  
1 45857U 20042B   22007.44162829  .00002538  00000+0  35996-3 0  9996
2 45857  97.9704  86.0110 0009354 273.6846  86.3270 14.77840537 81663
SALSAT                  
1 46495U 20068K   22006.90234115  .00001467  00000+0  11104-3 0  9996
2 46495  97.7119 308.4195 0018255 103.6017 256.7243 15.03772030 69904
BY70-3                  
1 46839U 20079N   22007.41481479  .00006619  00000+0  19097-3 0  9997
2 46839  97.2207  82.2540 0006419 180.1038 312.6101 15.36004953 65484
RADFXSAT-2 (AO-109)     
1 47311U 21002C   22007.19181379  .00001768  00000+0  86098-4 0  9997
2 47311  60.6858 247.9794 0030132 151.4571 208.8174 15.22748126 53899
UVSQ-SAT                
1 47438U 21006AB  22007.41671999  .00001596  00000+0  91656-4 0  9993
2 47438  97.4622  69.7650 0013978 111.1762 249.0964 15.13879865 52901
DIY-1 (ARDUIQUBE)       
1 47963U 21022AH  22006.68372505  .00003990  00000+0  25591-3 0  9997
2 47963  97.5450 270.4140 0018457 334.8277  25.2051 15.08939856 42520
XW-3 (CAS-9)            
1 50466U 21131B   22007.42182618 -.00000016  00000+0  93882-5 0  9994
2 50466  98.5974  84.6530 0003449 266.8166  93.2624 14.38435514  1764
